{
  "type": "FeatureCollection",
  "features": [
    {
      "type": "Feature",
      "properties": {
        "norad_id": 30691,
        "name": "FENGYUN 1C DEB",
        "group": "fengyun-1c-debris",
        "lat": 36.424753094598316,
        "lon": -176.6907277809528,
        "alt_km": 933.9983034565294,
        "timestamp": "2025-12-11T07:02:24.008390+00:00",
        "meta_object_name": "FENGYUN 1C DEB",
        "meta_object_id": "1999-025AQZ",
        "meta_epoch": "2025-12-07T00:44:07.899072",
        "meta_mean_motion": 13.89408604,
        "meta_eccentricity": 0.0139223,
        "meta_inclination": 98.743,
        "meta_ra_of_asc_node": 352.7852,
        "meta_arg_of_pericenter": 248.8184,
        "meta_mean_anomaly": 185.8655,
        "meta_ephemeris_type": 0,
        "meta_classification_type": "U",
        "meta_norad_cat_id": 30691,
        "meta_element_set_no": 999,
        "meta_rev_at_epoch": 95037,
        "meta_bstar": 0.0017684933,
        "meta_mean_motion_dot": 2.291e-05,
        "meta_mean_motion_ddot": 0,
        "tle_line1": "1 30691U 99025AQZ 25341.03064698  .00002291  00000+0  17685-2 0  9997",
        "tle_line2": "2 30691  98.7430 352.7852 0139223 248.8184 185.8655 13.89408604950374"
      },
      "geometry": {
        "type": "Point",
        "coordinates": [
          -176.6907277809528,
          36.424753094598316
        ]
      }
    },
    {
      "type": "Feature",
      "properties": {
        "norad_id": 30693,
        "name": "FENGYUN 1C DEB",
        "group": "fengyun-1c-debris",
        "lat": 44.152863655673606,
        "lon": 158.99846652942003,
        "alt_km": 827.3782767632893,
        "timestamp": "2025-12-11T07:02:24.008401+00:00",
        "meta_object_name": "FENGYUN 1C DEB",
        "meta_object_id": "1999-025ARB",
        "meta_epoch": "2025-12-10T21:54:23.264064",
        "meta_mean_motion": 14.13283184,
        "meta_eccentricity": 0.00291863,
        "meta_inclination": 98.6861,
        "meta_ra_of_asc_node": 330.094,
        "meta_arg_of_pericenter": 172.6217,
        "meta_mean_anomaly": 187.5391,
        "meta_ephemeris_type": 0,
        "meta_classification_type": "U",
        "meta_norad_cat_id": 30693,
        "meta_element_set_no": 999,
        "meta_rev_at_epoch": 96909,
        "meta_bstar": 0.0004532402,
        "meta_mean_motion_dot": 8.1e-06,
        "meta_mean_motion_ddot": 0,
        "tle_line1": "1 30693U 99025ARB 25344.91276926  .00000810  00000+0  45324-3 0  9995",
        "tle_line2": "2 30693  98.6861 330.0940 0029186 172.6217 187.5391 14.13283184969094"
      },
      "geometry": {
        "type": "Point",
        "coordinates": [
          158.99846652942003,
          44.152863655673606
        ]
      }
    },
    {
      "type": "Feature",
      "properties": {
        "norad_id": 30694,
        "name": "FENGYUN 1C DEB",
        "group": "fengyun-1c-debris",
        "lat": 9.490365855261285,
        "lon": -50.233066548122785,
        "alt_km": 578.7871038102321,
        "timestamp": "2025-12-11T07:02:24.008412+00:00",
        "meta_object_name": "FENGYUN 1C DEB",
        "meta_object_id": "1999-025ARC",
        "meta_epoch": "2025-12-09T21:04:09.548256",
        "meta_mean_motion": 14.86326797,
        "meta_eccentricity": 0.01309753,
        "meta_inclination": 99.0475,
        "meta_ra_of_asc_node": 309.6838,
        "meta_arg_of_pericenter": 304.0403,
        "meta_mean_anomaly": 54.8428,
        "meta_ephemeris_type": 0,
        "meta_classification_type": "U",
        "meta_norad_cat_id": 30694,
        "meta_element_set_no": 999,
        "meta_rev_at_epoch": 53,
        "meta_bstar": 0.0026941707,
        "meta_mean_motion_dot": 0.00027766,
        "meta_mean_motion_ddot": 0,
        "tle_line1": "1 30694U 99025ARC 25343.87788829  .00027766  00000+0  26942-2 0  9993",
        "tle_line2": "2 30694  99.0475 309.6838 0130975 304.0403  54.8428 14.86326797   536"
      },
      "geometry": {
        "type": "Point",
        "coordinates": [
          -50.233066548122785,
          9.490365855261285
        ]
      }
    },
    {
      "type": "Feature",
      "properties": {
        "norad_id": 30696,
        "name": "FENGYUN 1C DEB",
        "group": "fengyun-1c-debris",
        "lat": 13.69996649709247,
        "lon": -143.60910027208286,
        "alt_km": 691.8175184218235,
        "timestamp": "2025-12-11T07:02:24.008422+00:00",
        "meta_object_name": "FENGYUN 1C DEB",
        "meta_object_id": "1999-025ARE",
        "meta_epoch": "2025-12-10T22:32:47.253120",
        "meta_mean_motion": 14.44743423,
        "meta_eccentricity": 0.00899318,
        "meta_inclination": 98.389,
        "meta_ra_of_asc_node": 33.98,
        "meta_arg_of_pericenter": 131.1661,
        "meta_mean_anomaly": 354.6885,
        "meta_ephemeris_type": 0,
        "meta_classification_type": "U",
        "meta_norad_cat_id": 30696,
        "meta_element_set_no": 999,
        "meta_rev_at_epoch": 98278,
        "meta_bstar": 0.0012278131,
        "meta_mean_motion_dot": 4.434e-05,
        "meta_mean_motion_ddot": 0,
        "tle_line1": "1 30696U 99025ARE 25344.93943580  .00004434  00000+0  12278-2 0  9994",
        "tle_line2": "2 30696  98.3890  33.9800 0089931 131.1661 354.6885 14.44743423982784"
      },
      "geometry": {
        "type": "Point",
        "coordinates": [
          -143.60910027208286,
          13.69996649709247
        ]
      }
    },
    {
      "type": "Feature",
      "properties": {
        "norad_id": 30697,
        "name": "FENGYUN 1C DEB",
        "group": "fengyun-1c-debris",
        "lat": 79.0264012943371,
        "lon": -83.88375972916312,
        "alt_km": 842.5928168937962,
        "timestamp": "2025-12-11T07:02:24.008432+00:00",
        "meta_object_name": "FENGYUN 1C DEB",
        "meta_object_id": "1999-025ARF",
        "meta_epoch": "2025-12-10T16:00:34.517088",
        "meta_mean_motion": 14.13501175,
        "meta_eccentricity": 0.0088021,
        "meta_inclination": 98.907,
        "meta_ra_of_asc_node": 41.5178,
        "meta_arg_of_pericenter": 191.013,
        "meta_mean_anomaly": 321.3529,
        "meta_ephemeris_type": 0,
        "meta_classification_type": "U",
        "meta_norad_cat_id": 30697,
        "meta_element_set_no": 999,
        "meta_rev_at_epoch": 96231,
        "meta_bstar": 0.0022818,
        "meta_mean_motion_dot": 4.414e-05,
        "meta_mean_motion_ddot": 0,
        "tle_line1": "1 30697U 99025ARF 25344.66706617  .00004414  00000+0  22818-2 0  9992",
        "tle_line2": "2 30697  98.9070  41.5178 0088021 191.0130 321.3529 14.13501175962314"
      },
      "geometry": {
        "type": "Point",
        "coordinates": [
          -83.88375972916312,
          79.0264012943371
        ]
      }
    },
    {
      "type": "Feature",
      "properties": {
        "norad_id": 30699,
        "name": "FENGYUN 1C DEB",
        "group": "fengyun-1c-debris",
        "lat": 51.60407717077455,
        "lon": 92.67719482577243,
        "alt_km": 733.6395463269628,
        "timestamp": "2025-12-11T07:02:24.008442+00:00",
        "meta_object_name": "FENGYUN 1C DEB",
        "meta_object_id": "1999-025ARH",
        "meta_epoch": "2025-12-09T06:39:59.339232",
        "meta_mean_motion": 14.46843688,
        "meta_eccentricity": 0.0004073,
        "meta_inclination": 99.3108,
        "meta_ra_of_asc_node": 102.4111,
        "meta_arg_of_pericenter": 262.6697,
        "meta_mean_anomaly": 97.403,
        "meta_ephemeris_type": 0,
        "meta_classification_type": "U",
        "meta_norad_cat_id": 30699,
        "meta_element_set_no": 999,
        "meta_rev_at_epoch": 97563,
        "meta_bstar": 0.0032405,
        "meta_mean_motion_dot": 0.00011717,
        "meta_mean_motion_ddot": 0,
        "tle_line1": "1 30699U 99025ARH 25343.27777013  .00011717  00000+0  32405-2 0  9995",
        "tle_line2": "2 30699  99.3108 102.4111 0004073 262.6697  97.4030 14.46843688975636"
      },
      "geometry": {
        "type": "Point",
        "coordinates": [
          92.67719482577243,
          51.60407717077455
        ]
      }
    },
    {
      "type": "Feature",
      "properties": {
        "norad_id": 30700,
        "name": "FENGYUN 1C DEB",
        "group": "fengyun-1c-debris",
        "lat": -80.82222646402916,
        "lon": 125.17992825529306,
        "alt_km": 849.9782912503733,
        "timestamp": "2025-12-11T07:02:24.008452+00:00",
        "meta_object_name": "FENGYUN 1C DEB",
        "meta_object_id": "1999-025ARJ",
        "meta_epoch": "2025-12-10T19:40:41.891520",
        "meta_mean_motion": 14.23791441,
        "meta_eccentricity": 0.00870336,
        "meta_inclination": 98.5418,
        "meta_ra_of_asc_node": 13.1897,
        "meta_arg_of_pericenter": 148.8499,
        "meta_mean_anomaly": 211.7881,
        "meta_ephemeris_type": 0,
        "meta_classification_type": "U",
        "meta_norad_cat_id": 30700,
        "meta_element_set_no": 999,
        "meta_rev_at_epoch": 97542,
        "meta_bstar": 0.0002607489,
        "meta_mean_motion_dot": 5.78e-06,
        "meta_mean_motion_ddot": 0,
        "tle_line1": "1 30700U 99025ARJ 25344.81992930  .00000578  00000+0  26075-3 0  9996",
        "tle_line2": "2 30700  98.5418  13.1897 0087033 148.8499 211.7881 14.23791441975421"
      },
      "geometry": {
        "type": "Point",
        "coordinates": [
          125.17992825529306,
          -80.82222646402916
        ]
      }
    }
  ]
}